{
  "type": "FeatureCollection",
  "features": [
    {
      "type": "Feature",
      "properties": {
        "norad_id": 31161,
        "name": "FENGYUN 1C DEB",
        "group": "fengyun-1c-debris",
        "lat": -69.84124653710501,
        "lon": 163.64223161627868,
        "alt_km": 875.8392189066026,
        "timestamp": "2025-12-12T20:43:07.315946+00:00",
        "meta_object_name": "FENGYUN 1C DEB",
        "meta_object_id": "1999-025BHP",
        "meta_epoch": "2025-12-10T07:53:03.804000",
        "meta_mean_motion": 14.09246165,
        "meta_eccentricity": 0.0068407,
        "meta_inclination": 98.7489,
        "meta_ra_of_asc_node": 5.9817,
        "meta_arg_of_pericenter": 356.9972,
        "meta_mean_anomaly": 3.0779,
        "meta_ephemeris_type": 0,
        "meta_classification_type": "U",
        "meta_norad_cat_id": 31161,
        "meta_element_set_no": 999,
        "meta_rev_at_epoch": 96068,
        "meta_bstar": 0.00045996,
        "meta_mean_motion_dot": 7.75e-06,
        "meta_mean_motion_ddot": 0,
        "tle_line1": "1 31161U 99025BHP 25344.32851625  .00000775  00000+0  45996-3 0  9991",
        "tle_line2": "2 31161  98.7489   5.9817 0068407 356.9972   3.0779 14.09246165960688"
      },
      "geometry": {
        "type": "Point",
        "coordinates": [
          163.64223161627868,
          -69.84124653710501
        ]
      }
    },
    {
      "type": "Feature",
      "properties": {
        "norad_id": 31165,
        "name": "FENGYUN 1C DEB",
        "group": "fengyun-1c-debris",
        "lat": -44.3746418055839,
        "lon": -142.13933997513044,
        "alt_km": 616.272479894018,
        "timestamp": "2025-12-12T20:43:07.315957+00:00",
        "meta_object_name": "FENGYUN 1C DEB",
        "meta_object_id": "1999-025BHT",
        "meta_epoch": "2025-12-11T09:41:53.179872",
        "meta_mean_motion": 14.71022669,
        "meta_eccentricity": 0.00692742,
        "meta_inclination": 98.885,
        "meta_ra_of_asc_node": 45.0742,
        "meta_arg_of_pericenter": 239.0454,
        "meta_mean_anomaly": 183.0545,
        "meta_ephemeris_type": 0,
        "meta_classification_type": "U",
        "meta_norad_cat_id": 31165,
        "meta_element_set_no": 999,
        "meta_rev_at_epoch": 98735,
        "meta_bstar": 0.0026079496,
        "meta_mean_motion_dot": 0.00016591,
        "meta_mean_motion_ddot": 0,
        "tle_line1": "1 31165U 99025BHT 25345.40408773  .00016591  00000+0  26079-2 0  9990",
        "tle_line2": "2 31165  98.8850  45.0742 0069274 239.0454 183.0545 14.71022669987359"
      },
      "geometry": {
        "type": "Point",
        "coordinates": [
          -142.13933997513044,
          -44.3746418055839
        ]
      }
    },
    {
      "type": "Feature",
      "properties": {
        "norad_id": 31168,
        "name": "FENGYUN 1C DEB",
        "group": "fengyun-1c-debris",
        "lat": 48.960678335165206,
        "lon": -51.52067212430596,
        "alt_km": 634.2602254065905,
        "timestamp": "2025-12-12T20:43:07.315967+00:00",
        "meta_object_name": "FENGYUN 1C DEB",
        "meta_object_id": "1999-025BHW",
        "meta_epoch": "2025-12-11T08:08:00.580704",
        "meta_mean_motion": 14.6733144,
        "meta_eccentricity": 0.0108926,
        "meta_inclination": 98.8905,
        "meta_ra_of_asc_node": 116.4672,
        "meta_arg_of_pericenter": 67.9712,
        "meta_mean_anomaly": 293.3018,
        "meta_ephemeris_type": 0,
        "meta_classification_type": "U",
        "meta_norad_cat_id": 31168,
        "meta_element_set_no": 999,
        "meta_rev_at_epoch": 99100,
        "meta_bstar": 0.0012606534,
        "meta_mean_motion_dot": 7.727e-05,
        "meta_mean_motion_ddot": 0,
        "tle_line1": "1 31168U 99025BHW 25345.33889561  .00007727  00000+0  12607-2 0  9996",
        "tle_line2": "2 31168  98.8905 116.4672 0108926  67.9712 293.3018 14.67331440991003"
      },
      "geometry": {
        "type": "Point",
        "coordinates": [
          -51.52067212430596,
          48.960678335165206
        ]
      }
    },
    {
      "type": "Feature",
      "properties": {
        "norad_id": 31169,
        "name": "FENGYUN 1C DEB",
        "group": "fengyun-1c-debris",
        "lat": -30.952490515017143,
        "lon": 18.851853882599574,
        "alt_km": 781.9459196646021,
        "timestamp": "2025-12-12T20:43:07.315977+00:00",
        "meta_object_name": "FENGYUN 1C DEB",
        "meta_object_id": "1999-025BHX",
        "meta_epoch": "2025-12-12T00:39:46.602144",
        "meta_mean_motion": 14.26438349,
        "meta_eccentricity": 0.0057466,
        "meta_inclination": 99.1577,
        "meta_ra_of_asc_node": 12.4267,
        "meta_arg_of_pericenter": 19.3517,
        "meta_mean_anomaly": 340.9826,
        "meta_ephemeris_type": 0,
        "meta_classification_type": "U",
        "meta_norad_cat_id": 31169,
        "meta_element_set_no": 999,
        "meta_rev_at_epoch": 57094,
        "meta_bstar": 0.0031531,
        "meta_mean_motion_dot": 7.681e-05,
        "meta_mean_motion_ddot": 0,
        "tle_line1": "1 31169U 99025BHX 25346.02762271  .00007681  00000+0  31531-2 0  9998",
        "tle_line2": "2 31169  99.1577  12.4267 0057466  19.3517 340.9826 14.26438349570947"
      },
      "geometry": {
        "type": "Point",
        "coordinates": [
          18.851853882599574,
          -30.952490515017143
        ]
      }
    },
    {
      "type": "Feature",
      "properties": {
        "norad_id": 31171,
        "name": "FENGYUN 1C DEB",
        "group": "fengyun-1c-debris",
        "lat": 66.99152998154796,
        "lon": -42.855186953543786,
        "alt_km": 809.2636295742468,
        "timestamp": "2025-12-12T20:43:07.315988+00:00",
        "meta_object_name": "FENGYUN 1C DEB",
        "meta_object_id": "1999-025BHZ",
        "meta_epoch": "2025-12-10T05:04:51.254112",
        "meta_mean_motion": 14.34696568,
        "meta_eccentricity": 0.01546798,
        "meta_inclination": 98.0159,
        "meta_ra_of_asc_node": 334.0626,
        "meta_arg_of_pericenter": 324.2421,
        "meta_mean_anomaly": 94.6903,
        "meta_ephemeris_type": 0,
        "meta_classification_type": "U",
        "meta_norad_cat_id": 31171,
        "meta_element_set_no": 999,
        "meta_rev_at_epoch": 95794,
        "meta_bstar": 0.0081114124,
        "meta_mean_motion_dot": 0.00026327,
        "meta_mean_motion_ddot": 0,
        "tle_line1": "1 31171U 99025BHZ 25344.21170433  .00026327  00000+0  81114-2 0  9993",
        "tle_line2": "2 31171  98.0159 334.0626 0154679 324.2421  94.6903 14.34696568957948"
      },
      "geometry": {
        "type": "Point",
        "coordinates": [
          -42.855186953543786,
          66.99152998154796
        ]
      }
    },
    {
      "type": "Feature",
      "properties": {
        "norad_id": 31172,
        "name": "FENGYUN 1C DEB",
        "group": "fengyun-1c-debris",
        "lat": -34.999331926302055,
        "lon": -2.71004194736132,
        "alt_km": 733.2404609391115,
        "timestamp": "2025-12-12T20:43:07.315998+00:00",
        "meta_object_name": "FENGYUN 1C DEB",
        "meta_object_id": "1999-025BJA",
        "meta_epoch": "2025-12-12T05:47:05.830080",
        "meta_mean_motion": 14.31512836,
        "meta_eccentricity": 0.01480563,
        "meta_inclination": 98.4247,
        "meta_ra_of_asc_node": 350.7297,
        "meta_arg_of_pericenter": 270.0145,
        "meta_mean_anomaly": 88.4073,
        "meta_ephemeris_type": 0,
        "meta_classification_type": "U",
        "meta_norad_cat_id": 31172,
        "meta_element_set_no": 999,
        "meta_rev_at_epoch": 97619,
        "meta_bstar": 0.00025603075,
        "meta_mean_motion_dot": 7.21e-06,
        "meta_mean_motion_ddot": 0,
        "tle_line1": "1 31172U 99025BJA 25346.24103970  .00000721  00000+0  25603-3 0  9993",
        "tle_line2": "2 31172  98.4247 350.7297 0148056 270.0145  88.4073 14.31512836976192"
      },
      "geometry": {
        "type": "Point",
        "coordinates": [
          -2.71004194736132,
          -34.999331926302055
        ]
      }
    },
    {
      "type": "Feature",
      "properties": {
        "norad_id": 31175,
        "name": "FENGYUN 1C DEB",
        "group": "fengyun-1c-debris",
        "lat": -57.84500854667476,
        "lon": 153.44838344912313,
        "alt_km": 684.7634668170249,
        "timestamp": "2025-12-12T20:43:07.316008+00:00",
        "meta_object_name": "FENGYUN 1C DEB",
        "meta_object_id": "1999-025BJD",
        "meta_epoch": "2025-12-11T05:48:10.450368",
        "meta_mean_motion": 14.59967453,
        "meta_eccentricity": 0.0073885,
        "meta_inclination": 98.4017,
        "meta_ra_of_asc_node": 345.4033,
        "meta_arg_of_pericenter": 170.318,
        "meta_mean_anomaly": 189.9463,
        "meta_ephemeris_type": 0,
        "meta_classification_type": "U",
        "meta_norad_cat_id": 31175,
        "meta_element_set_no": 999,
        "meta_rev_at_epoch": 65617,
        "meta_bstar": 0.0077656462,
        "meta_mean_motion_dot": 0.00038845,
        "meta_mean_motion_ddot": 0,
        "tle_line1": "1 31175U 99025BJD 25345.24178762  .00038845  00000+0  77656-2 0  9998",
        "tle_line2": "2 31175  98.4017 345.4033 0073885 170.3180 189.9463 14.59967453656179"
      },
      "geometry": {
        "type": "Point",
        "coordinates": [
          153.44838344912313,
          -57.84500854667476
        ]
      }
    }
  ]
}